NORAD_CAT_ID,OBJECT_NAME,OBJECT_TYPE,EPOCH,MEAN_MOTION,ECCENTRICITY,INCLINATION,RA_OF_ASC_NODE,ARG_OF_PERICENTER,MEAN_ANOMALY,BSTAR,MEAN_MOTION_DOT,MEAN_MOTION_DDOT,TLE_LINE0,TLE_LINE1,TLE_LINE2,SEMIMAJOR_AXIS,PERIOD,APOGEE,PERIGEE,DECAYED
51963.0,STARLINK-3675,PAYLOAD,2024-02-10 14:28:07,15.08024781,0.0001479,53.0543,189.3299,80.7724,279.3433,0.00015987,2.203e-05,0.0,0 STARLINK-3675,1 51963U 22025H   24041.60286062  .00002203  00000-0  15987-3 0  9996,2 51963  53.0543 189.3299 0001479  80.7724 279.3433 15.08024781106729,6920.373,95.489,543.262,541.215,0.0
51963.0,STARLINK-3675,PAYLOAD,2024-02-10 16:03:33,15.08024271,0.0001772,53.0543,189.0326,59.5196,300.5968,0.00015072,2.061e-05,0.0,0 STARLINK-3675,1 51963U 22025H   24041.66913733  .00002061  00000-0  15072-3 0  9991,2 51963  53.0543 189.0326 0001772  59.5196 300.5968 15.08024271107826,6920.375,95.489,543.466,541.014,0.0
51963.0,STARLINK-3675,PAYLOAD,2024-02-11 14:19:38,15.08043216,0.0001513,53.056,184.854,90.1636,269.9527,-5.4582e-06,-3.71e-06,0.0,0 STARLINK-3675,1 51963U 22025H   24042.59697559 -.00000371  00000-0 -54582-5 0  9994,2 51963  53.0560 184.8540 0001513  90.1636 269.9527 15.08043216106872,6920.317,95.488,543.229,541.135,0.0
51963.0,STARLINK-3675,PAYLOAD,2024-02-11 15:55:04,15.08045348,0.0001773,53.0529,184.5562,52.2076,307.9074,3.3108e-05,2.3e-06,0.0,0 STARLINK-3675,1 51963U 22025H   24042.66324967  .00000230  00000-0  33108-4 0  9994,2 51963  53.0529 184.5562 0001773  52.2076 307.9074 15.08045348107973,6920.31,95.488,543.402,540.948,0.0
51963.0,STARLINK-3675,PAYLOAD,2024-02-12 09:24:52,15.08035047,0.0001355,53.055,181.2738,95.3217,264.7927,0.00010754,1.389e-05,0.0,0 STARLINK-3675,1 51963U 22025H   24043.39227439  .00001389  00000-0  10754-3 0  9998,2 51963  53.0550 181.2738 0001355  95.3217 264.7927 15.08035047108082,6920.342,95.488,543.145,541.269,0.0
51963.0,STARLINK-3675,PAYLOAD,2024-02-12 14:11:10,15.08036256,0.0001418,53.0548,180.3814,87.6603,272.4549,0.0001557,2.139e-05,0.0,0 STARLINK-3675,1 51963U 22025H   24043.59109823  .00002139  00000-0  15570-3 0  9991,2 51963  53.0548 180.3814 0001418  87.6603 272.4549 15.08036256107029,6920.338,95.488,543.185,541.222,0.0
51963.0,STARLINK-3675,PAYLOAD,2024-02-13 12:27:17,15.08031205,0.0001479,53.0558,176.205,97.7381,262.3776,-4.3516e-05,-9.63e-06,0.0,0 STARLINK-3675,1 51963U 22025H   24044.51895686 -.00000963  00000-0 -43516-4 0  9990,2 51963  53.0558 176.2050 0001479  97.7381 262.3776 15.08031205108253,6920.354,95.489,543.242,541.195,0.0
51963.0,STARLINK-3675,PAYLOAD,2024-02-13 14:02:43,15.08028449,0.0001456,53.0548,175.9084,97.716,262.3995,-0.0001309,-2.323e-05,0.0,0 STARLINK-3675,1 51963U 22025H   24044.58522908 -.00002323  00000-0 -13090-3 0  9996,2 51963  53.0548 175.9084 0001456  97.7160 262.3995 15.08028449107174,6920.362,95.489,543.235,541.219,0.0
51963.0,STARLINK-3675,PAYLOAD,2024-02-13 15:38:09,15.08035085,0.0001395,53.0554,175.612,105.7416,254.3728,-3.8655e-05,-8.88e-06,0.0,0 STARLINK-3675,1 51963U 22025H   24044.65150424 -.00000888  00000-0 -38655-4 0  9993,2 51963  53.0554 175.6120 0001395 105.7416 254.3728 15.08035085107185,6920.342,95.488,543.172,541.241,0.0
51963.0,STARLINK-3675,PAYLOAD,2024-02-14 15:29:41,15.08040746,0.000143,53.0554,171.1382,90.892,269.2234,0.00021764,3.105e-05,0.0,0 STARLINK-3675,1 51963U 22025H   24045.64562357  .00003105  00000-0  21764-3 0  9990,2 51963  53.0554 171.1382 0001430  90.8920 269.2234 15.08040746107334,6920.324,95.488,543.179,541.2,0.0
51963.0,STARLINK-3675,PAYLOAD,2024-02-14 18:40:33,15.08048777,0.0001312,53.0526,170.5367,68.2496,291.8633,0.00032043,4.709e-05,0.0,0 STARLINK-3675,1 51963U 22025H   24045.77816889  .00004709  00000-0  32043-3 0  9999,2 51963  53.0526 170.5367 0001312  68.2496 291.8633 15.08048777108444,6920.3,95.488,543.073,541.257,0.0
51963.0,STARLINK-3675,PAYLOAD,2024-02-15 01:02:19,15.08019217,0.0002193,53.0537,169.3443,85.9143,274.2097,-5.6647e-05,-1.168e-05,0.0,0 STARLINK-3675,1 51963U 22025H   24046.04328682 -.00001168  00000-0 -56647-4 0  9994,2 51963  53.0537 169.3443 0002193  85.9143 274.2097 15.08019217108480,6920.39,95.489,543.773,540.738,0.0
51963.0,STARLINK-3675,PAYLOAD,2024-02-15 13:45:49,15.08019664,0.0001755,53.0547,166.9562,83.745,276.3739,-7.3537e-05,-1.43e-05,0.0,0 STARLINK-3675,1 51963U 22025H   24046.57348895 -.00001430  00000-0 -73537-4 0  9999,2 51963  53.0547 166.9562 0001755  83.7450 276.3739 15.08019664107476,6920.389,95.489,543.468,541.039,0.0
51963.0,STARLINK-3675,PAYLOAD,2024-02-15 16:56:41,15.08031478,0.000145,53.0546,166.363,92.9258,267.1898,0.00013801,1.863e-05,0.0,0 STARLINK-3675,1 51963U 22025H   24046.70603321  .00001863  00000-0  13801-3 0  9997,2 51963  53.0546 166.3630 0001450  92.9258 267.1898 15.08031478108589,6920.353,95.489,543.221,541.214,0.0
51963.0,STARLINK-3675,PAYLOAD,2024-02-16 13:37:21,15.08036822,0.0001603,53.0548,162.4837,84.6774,275.4398,0.0001085,1.404e-05,0.0,0 STARLINK-3675,1 51963U 22025H   24047.56760653  .00001404  00000-0  10850-3 0  9996,2 51963  53.0548 162.4837 0001603  84.6774 275.4398 15.08036822107627,6920.336,95.488,543.311,541.092,0.0
51963.0,STARLINK-3675,PAYLOAD,2024-02-16 16:48:13,15.08043913,0.0001903,53.0563,161.8859,87.0798,273.0409,0.00022698,3.251e-05,0.0,0 STARLINK-3675,1 51963U 22025H   24047.70015313  .00003251  00000-0  22698-3 0  9993,2 51963  53.0563 161.8859 0001903  87.0798 273.0409 15.08043913107645,6920.315,95.488,543.497,540.863,0.0
51963.0,STARLINK-3675,PAYLOAD,2024-02-17 11:53:27,15.08028198,0.0002948,53.0554,158.306,131.522,228.6023,8.6379e-05,1.058e-05,0.0,0 STARLINK-3675,1 51963U 22025H   24048.49545992  .00001058  00000-0  86379-4 0  9991,2 51963  53.0554 158.3060 0002948 131.5220 228.6023 15.08028198108855,6920.363,95.489,544.268,540.188,0.0
51963.0,STARLINK-3675,PAYLOAD,2024-02-17 13:28:54,15.08028888,0.0001863,53.055,158.0083,101.3995,258.7204,6.5987e-05,7.41e-06,0.0,0 STARLINK-3675,1 51963U 22025H   24048.56173733  .00000741  00000-0  65987-4 0  9999,2 51963  53.0550 158.0083 0001863 101.3995 258.7204 15.08028888107773,6920.361,95.489,543.515,540.936,0.0
51963.0,STARLINK-3675,PAYLOAD,2024-02-17 16:39:46,15.08031099,0.0001998,53.0548,157.4101,104.8844,255.2367,0.00010959,1.42e-05,0.0,0 STARLINK-3675,1 51963U 22025H   24048.69428651  .00001420  00000-0  10959-3 0  9998,2 51963  53.0548 157.4101 0001998 104.8844 255.2367 15.08031099107796,6920.354,95.489,543.602,540.836,0.0
51963.0,STARLINK-3675,PAYLOAD,2024-02-18 00:36:57,15.08023993,0.0001761,53.0571,155.9204,90.821,269.2981,-2.4575e-05,-6.69e-06,0.0,0 STARLINK-3675,1 51963U 22025H   24049.02566431 -.00000669  00000-0 -24575-4 0  9991,2 51963  53.0571 155.9204 0001761  90.8210 269.2981 15.08023993108936,6920.376,95.489,543.459,541.022,0.0
51963.0,STARLINK-3675,PAYLOAD,2024-02-18 13:20:26,15.08033524,0.0001195,53.0543,153.5387,76.9212,283.1911,0.0002776,4.039e-05,0.0,0 STARLINK-3675,1 51963U 22025H   24049.55586008  .00004039  00000-0  27760-3 0  9992,2 51963  53.0543 153.5387 0001195  76.9212 283.1911 15.08033524107926,6920.347,95.489,543.039,541.385,0.0
51963.0,STARLINK-3675,PAYLOAD,2024-02-18 16:31:18,15.08045261,0.0001492,53.052,152.9386,92.4372,267.6788,0.00061009,9.229e-05,0.0,0 STARLINK-3675,1 51963U 22025H   24049.68840692  .00009229  00000-0  61009-3 0  9998,2 51963  53.0520 152.9386 0001492  92.4372 267.6788 15.08045261109037,6920.311,95.488,543.208,541.143,0.0
51963.0,STARLINK-3675,PAYLOAD,2024-02-19 11:36:32,15.0803511,0.0001454,53.054,149.3592,103.1939,256.9213,0.00028669,4.181e-05,0.0,0 STARLINK-3675,1 51963U 22025H   24050.48371109  .00004181  00000-0  28669-3 0  9997,2 51963  53.0540 149.3592 0001454 103.1939 256.9213 15.08035110109154,6920.342,95.488,543.213,541.2,0.0
51963.0,STARLINK-3675,PAYLOAD,2024-02-19 13:11:58,15.08036369,0.0001467,53.0543,149.061,100.407,259.7085,0.00032897,4.84e-05,0.0,0 STARLINK-3675,1 51963U 22025H   24050.54998608  .00004840  00000-0  32897-3 0  9993,2 51963  53.0543 149.0610 0001467 100.4070 259.7085 15.08036369108070,6920.338,95.488,543.218,541.188,0.0
51963.0,STARLINK-3675,PAYLOAD,2024-02-19 16:22:51,15.0803918,0.0001461,53.0543,148.4635,95.3517,264.764,0.00043398,6.478e-05,0.0,0 STARLINK-3675,1 51963U 22025H   24050.68253535  .00006478  00000-0  43398-3 0  9998,2 51963  53.0543 148.4635 0001461  95.3517 264.7640 15.08039180108091,6920.329,95.488,543.205,541.183,0.0
51963.0,STARLINK-3675,PAYLOAD,2024-02-20 11:28:04,15.08035762,0.0001556,53.0545,144.8831,96.7745,263.3422,0.0001927,2.716e-05,0.0,0 STARLINK-3675,1 51963U 22025H   24051.47783550  .00002716  00000-0  19270-3 0  9994,2 51963  53.0545 144.8831 0001556  96.7745 263.3422 15.08035762109304,6920.34,95.488,543.282,541.128,0.0
51963.0,STARLINK-3675,PAYLOAD,2024-02-20 13:03:30,15.08039213,0.0001436,53.0551,144.591,90.5978,269.5176,0.00015168,2.077e-05,0.0,0 STARLINK-3675,1 51963U 22025H   24051.54410874  .00002077  00000-0  15168-3 0  9990,2 51963  53.0551 144.5910 0001436  90.5978 269.5176 15.08039213108222,6920.329,95.488,543.188,541.2,0.0
51963.0,STARLINK-3675,PAYLOAD,2024-02-21 14:30:29,15.08043042,0.0001516,53.055,139.8179,92.3389,267.7774,0.00027679,4.027e-05,0.0,0 STARLINK-3675,1 51963U 22025H   24052.60450523  .00004027  00000-0  27679-3 0  9990,2 51963  53.0550 139.8179 0001516  92.3389 267.7774 15.08043042108386,6920.317,95.488,543.232,541.133,0.0
51963.0,STARLINK-3675,PAYLOAD,2024-02-22 11:11:10,15.08024323,0.0001763,53.0559,135.9416,71.9553,288.1629,-8.8306e-05,-1.66e-05,0.0,0 STARLINK-3675,1 51963U 22025H   24053.46608889 -.00001660  00000-0 -88306-4 0  9992,2 51963  53.0559 135.9416 0001763  71.9553 288.1629 15.08024323109609,6920.375,95.489,543.46,541.02,0.0
51963.0,STARLINK-3675,PAYLOAD,2024-02-22 12:46:36,15.08027134,0.0001522,53.055,135.642,83.9553,276.161,-2.7734e-05,-7.18e-06,0.0,0 STARLINK-3675,1 51963U 22025H   24053.53236322 -.00000718  00000-0 -27734-4 0  9990,2 51963  53.0550 135.6420 0001522  83.9553 276.1610 15.08027134108528,6920.366,95.489,543.284,541.178,0.0
